{"fetched_at":"2026-03-29T02:12:04Z","count":15717,"tles":[{"name":"STARLINK-4699","line1":"1 53716U 22107S   26087.60457047  .00000647  00000+0  58757-4 0  9992","line2":"2 53716  53.2154 168.8861 0001499  81.7372 278.3790 15.08839092197269","category":"Starlink"}]}